ONEWEB-0320             
1 49190U 21083E   25211.58435196  .00000047  00000+0  85407-4 0  9997
2 49190  87.9125  39.3527 0001766  89.7548 270.3786 13.18686153187592
ONEWEB-0321             
1 49191U 21083F   25211.61334803  .00000091  00000+0  19180-3 0  9998
2 49191  87.9281 338.5041 0001962  88.6330 271.5028 13.20772129194385
ONEWEB-0322             
1 49192U 21083G   25211.53359280  .00002391  00000+0  65110-2 0  9994
2 49192  87.8961  24.1617 0001885  95.5640 264.5704 13.13461911188698
ONEWEB-0324             
1 49193U 21083H   25211.57116123 -.00000011  00000+0 -59404-4 0  9996
2 49193  87.9125  39.3348 0001640  86.8012 273.3308 13.18685651187619
ONEWEB-0325             
1 49194U 21083J   25211.57445137  .00000034  00000+0  53050-4 0  9991
2 49194  87.9126  39.3511 0001860  87.4518 272.6827 13.18687626187628
ONEWEB-0326             
1 49195U 21083K   25211.51355420  .00000091  00000+0  19803-3 0  9991
2 49195  87.9123  39.3527 0001794 102.0100 258.1233 13.18684775187600
ONEWEB-0327             
1 49196U 21083L   25211.51328677  .00000039  00000+0  66142-4 0  9997
2 49196  87.9121  39.3812 0001854  99.4174 260.7168 13.18686350187622
ONEWEB-0328             
1 49197U 21083M   25211.52343759 -.00000050  00000+0 -17210-3 0  9993
2 49197  87.8962  24.1032 0001674  91.1023 269.0298 13.13470350188671
